ONEWEB-0275             
1 48993U 21060AC  24145.94755518 -.00001953  00000+0 -51436-2 0  9992
2 48993  87.9135  18.7213 0001567  63.6229 296.5063 13.16607404140443
ONEWEB-0276             
1 48994U 21060AD  24145.90480364  .00000884  00000+0  22783-2 0  9996
2 48994  87.9127  18.7245 0001691  85.6862 274.4462 13.16601808140456
ONEWEB-0277             
1 48995U 21060AE  24145.91747174 -.00003913  00000+0 -10269-1 0  9996
2 48995  87.9123  18.7597 0001488  91.1909 268.9392 13.16619997140448
ONEWEB-0278             
1 48996U 21060AF  24145.90797646 -.00000611  00000+0 -16312-2 0  9993
2 48996  87.9130  18.7204 0001419  65.6701 294.4577 13.16585324140571
ONEWEB-0279             
1 48997U 21060AG  24145.68789831  .00000080  00000+0  17587-3 0  9990
2 48997  87.9144  18.7634 0002356 102.9658 257.1736 13.16597060140473
ONEWEB-0280             
1 48998U 21060AH  24145.93013962 -.00000455  00000+0 -12225-2 0  9995
2 48998  87.9129  18.7154 0002318  73.1686 286.9699 13.16598309140444
ONEWEB-0281             
1 48999U 21060AJ  24145.93647507 -.00001592  00000+0 -41989-2 0  9996
2 48999  87.9128  18.7174 0001860  99.6571 260.4770 13.16591810140518
ONEWEB-0282             
1 49000U 21060AK  24145.89055737 -.00000281  00000+0 -76891-3 0  9998
2 49000  87.9129  18.7443 0002261  82.2049 277.9339 13.16600660140480
